ION SCV-008             
1 55051U 23001AU  26068.82429008  .00008336  00000+0  31423-3 0  9992
2 55051  97.5676 163.6060 0015192   8.5420 351.6074 15.27226640176169
STARLINK-30925          
1 58406U 23180E   26067.37738643  .00002099  00000+0  85748-4 0  9994
2 58406  43.0035  60.1034 0001347 257.0086 103.0615 15.27588974127302
